{"type": "FeatureCollection", "features": [ {"type": "Feature", "properties": {"norad_id": 66463, "name": "STARLINK-35463", "group": "last-30-days", "lat": -31.683171815016085, "lon": 46.270835443694544, "alt_km": 436.1830463185106, "timestamp": "2025-12-09T21:34:10.194805+00:00", "meta": {"OBJECT_NAME": "STARLINK-35463", "OBJECT_ID": "2025-262H", "EPOCH": "2025-12-09T14:00:01.999872", "MEAN_MOTION": 15.45510965, "ECCENTRICITY": 0.00011515, "INCLINATION": 42.9999, "RA_OF_ASC_NODE": 89.579, "ARG_OF_PERICENTER": 273.743, "MEAN_ANOMALY": 79.9517, "EPHEMERIS_TYPE": 0, "CLASSIFICATION_TYPE": "U", "NORAD_CAT_ID": 66463, "ELEMENT_SET_NO": 999, "REV_AT_EPOCH": 513, "BSTAR": -0.046925875, "MEAN_MOTION_DOT": -0.02050171, "MEAN_MOTION_DDOT": 0}, "tle": {"line1": "1 66463U 25262H   25343.58335648 -.02050171  00000+0 -46926-1 0  9996", "line2": "2 66463  42.9999  89.5790 0001151 273.7430  79.9517 15.45510965  5139"}}, "geometry": {"type": "Point", "coordinates": [46.270835443694544, -31.683171815016085]}}, {"type": "Feature", "properties": {"norad_id": 66464, "name": "STARLINK-35435", "group": "last-30-days", "lat": -36.15012168020554, "lon": 36.146572491081216, "alt_km": 440.14192204605297, "timestamp": "2025-12-09T21:34:10.194816+00:00", "meta": {"OBJECT_NAME": "STARLINK-35435", "OBJECT_ID": "2025-262J", "EPOCH": "2025-12-09T14:00:01.999872", "MEAN_MOTION": 15.44178506, "ECCENTRICITY": 0.00013426, "INCLINATION": 42.9999, "RA_OF_ASC_NODE": 89.5986, "ARG_OF_PERICENTER": 276.3748, "MEAN_ANOMALY": 69.3024, "EPHEMERIS_TYPE": 0, "CLASSIFICATION_TYPE": "U", "NORAD_CAT_ID": 66464, "ELEMENT_SET_NO": 999, "REV_AT_EPOCH": 513, "BSTAR": -0.049115733, "MEAN_MOTION_DOT": -0.02049641, "MEAN_MOTION_DDOT": 0}, "tle": {"line1": "1 66464U 25262J   25343.58335648 -.02049641  00000+0 -49116-1 0  9991", "line2": "2 66464  42.9999  89.5986 0001342 276.3748  69.3024 15.44178506  5136"}}, "geometry": {"type": "Point", "coordinates": [36.146572491081216, -36.15012168020554]}}, {"type": "Feature", "properties": {"norad_id": 66465, "name": "STARLINK-35448", "group": "last-30-days", "lat": -22.95411786840678, "lon": 60.67532760232748, "alt_km": 423.2445925312213, "timestamp": "2025-12-09T21:34:10.194826+00:00", "meta": {"OBJECT_NAME": "STARLINK-35448", "OBJECT_ID": "2025-262K", "EPOCH": "2025-12-09T15:31:35.343840", "MEAN_MOTION": 15.48372582, "ECCENTRICITY": 0.00015822, "INCLINATION": 43.0003, "RA_OF_ASC_NODE": 89.1761, "ARG_OF_PERICENTER": 326.8625, "MEAN_ANOMALY": 33.2135, "EPHEMERIS_TYPE": 0, "CLASSIFICATION_TYPE": "U", "NORAD_CAT_ID": 66465, "ELEMENT_SET_NO": 999, "REV_AT_EPOCH": 508, "BSTAR": -0.008033836, "MEAN_MOTION_DOT": -0.00413913, "MEAN_MOTION_DDOT": 0}, "tle": {"line1": "1 66465U 25262K   25343.64693685 -.00413913  00000+0 -80338-2 0  9994", "line2": "2 66465  43.0003  89.1761 0001582 326.8625  33.2135 15.48372582  5084"}}, "geometry": {"type": "Point", "coordinates": [60.67532760232748, -22.95411786840678]}}, {"type": "Feature", "properties": {"norad_id": 66466, "name": "STARLINK-35388", "group": "last-30-days", "lat": -19.39771182316474, "lon": 65.49250485267588, "alt_km": 419.9022283121867, "timestamp": "2025-12-09T21:34:10.194836+00:00", "meta": {"OBJECT_NAME": "STARLINK-35388", "OBJECT_ID": "2025-262L", "EPOCH": "2025-12-09T13:57:41.567904", "MEAN_MOTION": 15.49988258, "ECCENTRICITY": 0.00013587, "INCLINATION": 43.0004, "RA_OF_ASC_NODE": 89.5462, "ARG_OF_PERICENTER": 200.7916, "MEAN_ANOMALY": 159.2889, "EPHEMERIS_TYPE": 0, "CLASSIFICATION_TYPE": "U", "NORAD_CAT_ID": 66466, "ELEMENT_SET_NO": 999, "REV_AT_EPOCH": 507, "BSTAR": -0.0059713663, "MEAN_MOTION_DOT": -0.00329316, "MEAN_MOTION_DDOT": 0}, "tle": {"line1": "1 66466U 25262L   25343.58173111 -.00329316  00000+0 -59714-2 0  9992", "line2": "2 66466  43.0004  89.5462 0001358 200.7916 159.2889 15.49988258  5070"}}, "geometry": {"type": "Point", "coordinates": [65.49250485267588, -19.39771182316474]}}, {"type": "Feature", "properties": {"norad_id": 66467, "name": "STARLINK-35682", "group": "last-30-days", "lat": -27.300439547216378, "lon": 54.09399589699707, "alt_km": 431.77886720384595, "timestamp": "2025-12-09T21:34:10.194847+00:00", "meta": {"OBJECT_NAME": "STARLINK-35682", "OBJECT_ID": "2025-262M", "EPOCH": "2025-12-09T14:00:01.999872", "MEAN_MOTION": 15.4685661, "ECCENTRICITY": 0.00015243, "INCLINATION": 43.0001, "RA_OF_ASC_NODE": 89.5613, "ARG_OF_PERICENTER": 280.643, "MEAN_ANOMALY": 79.6461, "EPHEMERIS_TYPE": 0, "CLASSIFICATION_TYPE": "U", "NORAD_CAT_ID": 66467, "ELEMENT_SET_NO": 999, "REV_AT_EPOCH": 513, "BSTAR": -0.045378419, "MEAN_MOTION_DOT": -0.02074819, "MEAN_MOTION_DDOT": 0}, "tle": {"line1": "1 66467U 25262M   25343.58335648 -.02074819  00000+0 -45378-1 0  9995", "line2": "2 66467  43.0001  89.5613 0001524 280.6430  79.6461 15.46856610  5130"}}, "geometry": {"type": "Point", "coordinates": [54.09399589699707, -27.300439547216378]}}, {"type": "Feature", "properties": {"norad_id": 66468, "name": "STARLINK-35331", "group": "last-30-days", "lat": -17.386565800221117, "lon": 68.05217629671394, "alt_km": 416.47235522103983, "timestamp": "2025-12-09T21:34:10.194857+00:00", "meta": {"OBJECT_NAME": "STARLINK-35331", "OBJECT_ID": "2025-262N", "EPOCH": "2025-12-09T15:29:49.911648", "MEAN_MOTION": 15.50536877, "ECCENTRICITY": 8.605e-05, "INCLINATION": 43.0007, "RA_OF_ASC_NODE": 89.1667, "ARG_OF_PERICENTER": 279.6223, "MEAN_ANOMALY": 80.454, "EPHEMERIS_TYPE": 0, "CLASSIFICATION_TYPE": "U", "NORAD_CAT_ID": 66468, "ELEMENT_SET_NO": 999, "REV_AT_EPOCH": 508, "BSTAR": 0.00059192846, "MEAN_MOTION_DOT": 0.00034484, "MEAN_MOTION_DDOT": 0}, "tle": {"line1": "1 66468U 25262N   25343.64571657  .00034484  00000+0  59193-3 0  9997", "line2": "2 66468  43.0007  89.1667 0000860 279.6223  80.4540 15.50536877  5089"}}, "geometry": {"type": "Point", "coordinates": [68.05217629671394, -17.386565800221117]}}, {"type": "Feature", "properties": {"norad_id": 66469, "name": "STARLINK-35451", "group": "last-30-days", "lat": -13.540517364536905, "lon": 72.6932912578632, "alt_km": 415.58812856570785, "timestamp": "2025-12-09T21:34:10.194869+00:00", "meta": {"OBJECT_NAME": "STARLINK-35451", "OBJECT_ID": "2025-262P", "EPOCH": "2025-12-09T15:28:20.271648", "MEAN_MOTION": 15.50631911, "ECCENTRICITY": 0.00014236, "INCLINATION": 43.0003, "RA_OF_ASC_NODE": 89.1572, "ARG_OF_PERICENTER": 273.5774, "MEAN_ANOMALY": 86.4923, "EPHEMERIS_TYPE": 0, "CLASSIFICATION_TYPE": "U", "NORAD_CAT_ID": 66469, "ELEMENT_SET_NO": 999, "REV_AT_EPOCH": 508, "BSTAR": 0.0025854483, "MEAN_MOTION_DOT": 0.00154659, "MEAN_MOTION_DDOT": 0}, "tle": {"line1": "1 66469U 25262P   25343.64467907  .00154659  00000+0  25854-2 0  9993", "line2": "2 66469  43.0003  89.1572 0001423 273.5774  86.4923 15.50631911  5087"}}, "geometry": {"type": "Point", "coordinates": [72.6932912578632, -13.540517364536905]}}, {"type": "Feature", "properties": {"norad_id": 66470, "name": "STARLINK-35655", "group": "last-30-days", "lat": -16.05539630991002, "lon": 69.69141855035147, "alt_km": 415.980074041403, "timestamp": "2025-12-09T21:34:10.194879+00:00", "meta": {"OBJECT_NAME": "STARLINK-35655", "OBJECT_ID": "2025-262Q", "EPOCH": "2025-12-09T15:29:19.547232", "MEAN_MOTION": 15.50619241, "ECCENTRICITY": 0.00014995, "INCLINATION": 43.0001, "RA_OF_ASC_NODE": 89.1632, "ARG_OF_PERICENTER": 263.2552, "MEAN_ANOMALY": 96.8137, "EPHEMERIS_TYPE": 0, "CLASSIFICATION_TYPE": "U", "NORAD_CAT_ID": 66470, "ELEMENT_SET_NO": 999, "REV_AT_EPOCH": 508, "BSTAR": 0.0023024056, "MEAN_MOTION_DOT": 0.00137321, "MEAN_MOTION_DDOT": 0}, "tle": {"line1": "1 66470U 25262Q   25343.64536513  .00137321  00000+0  23024-2 0  9999", "line2": "2 66470  43.0001  89.1632 0001499 263.2552  96.8137 15.50619241  5081"}}, "geometry": {"type": "Point", "coordinates": [69.69141855035147, -16.05539630991002]}}, {"type": "Feature", "properties": {"norad_id": 66471, "name": "STARLINK-35569", "group": "last-30-days", "lat": -14.834726989513726, "lon": 71.16315855602737, "alt_km": 415.94367344608327, "timestamp": "2025-12-09T21:34:10.194889+00:00", "meta": {"OBJECT_NAME": "STARLINK-35569", "OBJECT_ID": "2025-262R", "EPOCH": "2025-12-09T15:28:50.068416", "MEAN_MOTION": 15.50596971, "ECCENTRICITY": 0.00013888, "INCLINATION": 43.0001, "RA_OF_ASC_NODE": 89.1604, "ARG_OF_PERICENTER": 269.9878, "MEAN_ANOMALY": 90.0823, "EPHEMERIS_TYPE": 0, "CLASSIFICATION_TYPE": "U", "NORAD_CAT_ID": 66471, "ELEMENT_SET_NO": 999, "REV_AT_EPOCH": 508, "BSTAR": 0.0015515367, "MEAN_MOTION_DOT": 0.00091812, "MEAN_MOTION_DDOT": 0}, "tle": {"line1": "1 66471U 25262R   25343.64502394  .00091812  00000+0  15515-2 0  9990", "line2": "2 66471  43.0001  89.1604 0001388 269.9878  90.0823 15.50596971  5084"}}, "geometry": {"type": "Point", "coordinates": [71.16315855602737, -14.834726989513726]}}, {"type": "Feature", "properties": {"norad_id": 66472, "name": "STARLINK-35567", "group": "last-30-days", "lat": -12.276528423025699, "lon": 74.16173334462539, "alt_km": 415.5264994736772, "timestamp": "2025-12-09T21:34:10.194901+00:00", "meta": {"OBJECT_NAME": "STARLINK-35567", "OBJECT_ID": "2025-262S", "EPOCH": "2025-12-09T15:27:50.617440", "MEAN_MOTION": 15.50627332, "ECCENTRICITY": 0.00014858, "INCLINATION": 43.0001, "RA_OF_ASC_NODE": 89.1547, "ARG_OF_PERICENTER": 271.3343, "MEAN_ANOMALY": 88.7347, "EPHEMERIS_TYPE": 0, "CLASSIFICATION_TYPE": "U", "NORAD_CAT_ID": 66472, "ELEMENT_SET_NO": 999, "REV_AT_EPOCH": 508, "BSTAR": 0.0025133427, "MEAN_MOTION_DOT": 0.00150226, "MEAN_MOTION_DDOT": 0}, "tle": {"line1": "1 66472U 25262S   25343.64433585  .00150226  00000+0  25133-2 0  9998", "line2": "2 66472  43.0001  89.1547 0001485 271.3343  88.7347 15.50627332  5084"}}, "geometry": {"type": "Point", "coordinates": [74.16173334462539, -12.276528423025699]}}]}